QIANFAN-1               
1 60379U 24140A   25343.43379006  .00000148  00000+0  21065-3 0  9994
2 60379  88.9756 299.6223 0015876 220.8446 139.1517 13.50977272 66907
QIANFAN-2               
1 60380U 24140B   25343.46279491  .00000146  00000+0  20720-3 0  9991
2 60380  88.9742 299.4591 0011919 188.6223 171.4726 13.50980894 66969
QIANFAN-3               
1 60381U 24140C   25343.47096031  .00000136  00000+0  19273-3 0  9990
2 60381  88.9735 299.5911 0012661 202.8601 157.1988 13.50981430 66871
QIANFAN-4               
1 60382U 24140D   25343.44614005  .00000130  00000+0  18340-3 0  9993
2 60382  88.9760 299.4905 0012060 191.6236 168.4638 13.50981602 66995
QIANFAN-5               
1 60383U 24140E   25343.42157777  .00000136  00000+0  19282-3 0  9992
2 60383  88.9735 299.6217 0013644 215.9424 144.0811 13.50979102 66854
QIANFAN-6               
1 60384U 24140F   25343.44217235  .00000136  00000+0  19143-3 0  9997
2 60384  88.9761 299.3648 0012006 198.0692 162.0034 13.50979571 67058
QIANFAN-7               
1 60385U 24140G   25343.45045264  .00001166  00000+0  46703-3 0  9996
2 60385  88.9778 294.1071 0017169  55.2936 304.9873 14.27642548 69922
QIANFAN-8               
1 60386U 24140H   25343.45042551  .00000119  00000+0  16505-3 0  9997
2 60386  88.9763 299.6014 0015380 202.0566 157.9925 13.50977444 66908
